{"type": "FeatureCollection", "features": [ {"type": "Feature", "properties": {"norad_id": 28649, "name": "IRS-P5 (CARTOSAT-1)", "group": "resource", "lat": -48.11647022370908, "lon": 17.359386063416558, "alt_km": 603.7509629270098, "timestamp": "2025-12-08T05:48:08.704053+00:00", "meta": {"OBJECT_NAME": "IRS-P5 (CARTOSAT-1)", "OBJECT_ID": "2005-017A", "EPOCH": "2025-12-07T23:34:30.489312", "MEAN_MOTION": 14.90380424, "ECCENTRICITY": 0.00015379, "INCLINATION": 97.5494, "RA_OF_ASC_NODE": 8.6066, "ARG_OF_PERICENTER": 49.5353, "MEAN_ANOMALY": 310.6, "EPHEMERIS_TYPE": 0, "CLASSIFICATION_TYPE": "U", "NORAD_CAT_ID": 28649, "ELEMENT_SET_NO": 999, "REV_AT_EPOCH": 11533, "BSTAR": 0.00023611803, "MEAN_MOTION_DOT": 2.246e-05, "MEAN_MOTION_DDOT": 0}, "tle": {"line1": "1 28649U 05017A   25341.98229733  .00002246  00000+0  23612-3 0  9990", "line2": "2 28649  97.5494   8.6066 0001537  49.5353 310.6000 14.90380424115338"}}, "geometry": {"type": "Point", "coordinates": [17.359386063416558, -48.11647022370908]}}, {"type": "Feature", "properties": {"norad_id": 28893, "name": "SINAH 1", "group": "resource", "lat": 11.618075158399867, "lon": 109.07545431861831, "alt_km": 689.7589937640414, "timestamp": "2025-12-08T05:48:08.704064+00:00", "meta": {"OBJECT_NAME": "SINAH 1", "OBJECT_ID": "2005-043D", "EPOCH": "2025-12-07T23:11:14.331840", "MEAN_MOTION": 14.63953827, "ECCENTRICITY": 0.00150834, "INCLINATION": 98.2601, "RA_OF_ASC_NODE": 110.5107, "ARG_OF_PERICENTER": 151.2224, "MEAN_ANOMALY": 208.9814, "EPHEMERIS_TYPE": 0, "CLASSIFICATION_TYPE": "U", "NORAD_CAT_ID": 28893, "ELEMENT_SET_NO": 999, "REV_AT_EPOCH": 7254, "BSTAR": 0.00017154989, "MEAN_MOTION_DOT": 8.5e-06, "MEAN_MOTION_DDOT": 0}, "tle": {"line1": "1 28893U 05043D   25341.96613810  .00000850  00000+0  17155-3 0  9995", "line2": "2 28893  98.2601 110.5107 0015083 151.2224 208.9814 14.63953827 72545"}}, "geometry": {"type": "Point", "coordinates": [109.07545431861831, 11.618075158399867]}}, {"type": "Feature", "properties": {"norad_id": 29079, "name": "EROS B", "group": "resource", "lat": 29.781822356892608, "lon": -77.15711803324132, "alt_km": 368.10607191754207, "timestamp": "2025-12-08T05:48:08.704075+00:00", "meta": {"OBJECT_NAME": "EROS B", "OBJECT_ID": "2006-014A", "EPOCH": "2025-12-07T21:29:55.894848", "MEAN_MOTION": 15.66384008, "ECCENTRICITY": 0.0001723, "INCLINATION": 97.3487, "RA_OF_ASC_NODE": 98.2457, "ARG_OF_PERICENTER": 267.5718, "MEAN_ANOMALY": 92.5345, "EPHEMERIS_TYPE": 0, "CLASSIFICATION_TYPE": "U", "NORAD_CAT_ID": 29079, "ELEMENT_SET_NO": 999, "REV_AT_EPOCH": 9004, "BSTAR": 0.0015661072, "MEAN_MOTION_DOT": 0.001651, "MEAN_MOTION_DDOT": 0}, "tle": {"line1": "1 29079U 06014A   25341.89578582  .00165100  00000+0  15661-2 0  9998", "line2": "2 29079  97.3487  98.2457 0001723 267.5718  92.5345 15.66384008 90043"}}, "geometry": {"type": "Point", "coordinates": [-77.15711803324132, 29.781822356892608]}}, {"type": "Feature", "properties": {"norad_id": 29228, "name": "RESURS-DK 1", "group": "resource", "lat": -44.379475212430314, "lon": -45.579268444954955, "alt_km": 531.4283093250424, "timestamp": "2025-12-08T05:48:08.704085+00:00", "meta": {"OBJECT_NAME": "RESURS-DK 1", "OBJECT_ID": "2006-021A", "EPOCH": "2025-12-07T19:16:15.140928", "MEAN_MOTION": 15.12120613, "ECCENTRICITY": 0.00076752, "INCLINATION": 69.9343, "RA_OF_ASC_NODE": 114.5957, "ARG_OF_PERICENTER": 262.626, "MEAN_ANOMALY": 97.4034, "EPHEMERIS_TYPE": 0, "CLASSIFICATION_TYPE": "U", "NORAD_CAT_ID": 29228, "ELEMENT_SET_NO": 999, "REV_AT_EPOCH": 7363, "BSTAR": 0.00029966628, "MEAN_MOTION_DOT": 5.073e-05, "MEAN_MOTION_DDOT": 0}, "tle": {"line1": "1 29228U 06021A   25341.80295302  .00005073  00000+0  29967-3 0  9996", "line2": "2 29228  69.9343 114.5957 0007675 262.6260  97.4034 15.12120613 73638"}}, "geometry": {"type": "Point", "coordinates": [-45.579268444954955, -44.379475212430314]}}, {"type": "Feature", "properties": {"norad_id": 29268, "name": "ARIRANG-2 (KOMPSAT-2)", "group": "resource", "lat": -82.08885429516813, "lon": -90.91017177847142, "alt_km": 680.5551575982863, "timestamp": "2025-12-08T05:48:08.704096+00:00", "meta": {"OBJECT_NAME": "ARIRANG-2 (KOMPSAT-2)", "OBJECT_ID": "2006-031A", "EPOCH": "2025-12-07T22:37:46.828704", "MEAN_MOTION": 14.64486879, "ECCENTRICITY": 0.00137126, "INCLINATION": 97.827, "RA_OF_ASC_NODE": 170.6499, "ARG_OF_PERICENTER": 325.0696, "MEAN_ANOMALY": 169.2275, "EPHEMERIS_TYPE": 0, "CLASSIFICATION_TYPE": "U", "NORAD_CAT_ID": 29268, "ELEMENT_SET_NO": 999, "REV_AT_EPOCH": 3348, "BSTAR": 0.00012938866, "MEAN_MOTION_DOT": 6.41e-06, "MEAN_MOTION_DDOT": 0}, "tle": {"line1": "1 29268U 06031A   25341.94290311  .00000641  00000+0  12939-3 0  9998", "line2": "2 29268  97.8270 170.6499 0013712 325.0696 169.2275 14.64486879 33480"}}, "geometry": {"type": "Point", "coordinates": [-90.91017177847142, -82.08885429516813]}}, {"type": "Feature", "properties": {"norad_id": 29709, "name": "LAPAN-TUBSAT", "group": "resource", "lat": -40.788181494167155, "lon": 145.22508063015366, "alt_km": 624.6619199408742, "timestamp": "2025-12-08T05:48:08.704106+00:00", "meta": {"OBJECT_NAME": "LAPAN-TUBSAT", "OBJECT_ID": "2007-001A", "EPOCH": "2025-12-07T22:20:43.009440", "MEAN_MOTION": 14.85658857, "ECCENTRICITY": 0.00136421, "INCLINATION": 98.1253, "RA_OF_ASC_NODE": 331.9888, "ARG_OF_PERICENTER": 88.5532, "MEAN_ANOMALY": 271.7245, "EPHEMERIS_TYPE": 0, "CLASSIFICATION_TYPE": "U", "NORAD_CAT_ID": 29709, "ELEMENT_SET_NO": 999, "REV_AT_EPOCH": 2275, "BSTAR": 0.00013296099, "MEAN_MOTION_DOT": 1.097e-05, "MEAN_MOTION_DDOT": 0}, "tle": {"line1": "1 29709U 07001A   25341.93105335  .00001097  00000+0  13296-3 0  9999", "line2": "2 29709  98.1253 331.9888 0013642  88.5532 271.7245 14.85658857 22755"}}, "geometry": {"type": "Point", "coordinates": [145.22508063015366, -40.788181494167155]}}, {"type": "Feature", "properties": {"norad_id": 31113, "name": "HAIYANG-1B", "group": "resource", "lat": -81.63822449847484, "lon": 52.19038259808315, "alt_km": 803.7612174256674, "timestamp": "2025-12-08T05:48:08.704116+00:00", "meta": {"OBJECT_NAME": "HAIYANG-1B", "OBJECT_ID": "2007-010A", "EPOCH": "2025-12-07T23:30:24.882624", "MEAN_MOTION": 14.30962449, "ECCENTRICITY": 0.00144508, "INCLINATION": 98.3309, "RA_OF_ASC_NODE": 326.4544, "ARG_OF_PERICENTER": 51.2119, "MEAN_ANOMALY": 309.0353, "EPHEMERIS_TYPE": 0, "CLASSIFICATION_TYPE": "U", "NORAD_CAT_ID": 31113, "ELEMENT_SET_NO": 999, "REV_AT_EPOCH": 97328, "BSTAR": 9.4169397e-05, "MEAN_MOTION_DOT": 2.06e-06, "MEAN_MOTION_DDOT": 0}, "tle": {"line1": "1 31113U 07010A   25341.97945466  .00000206  00000+0  94169-4 0  9992", "line2": "2 31113  98.3309 326.4544 0014450  51.2119 309.0353 14.30962449973288"}}, "geometry": {"type": "Point", "coordinates": [52.19038259808315, -81.63822449847484]}}, {"type": "Feature", "properties": {"norad_id": 31598, "name": "COSMO-SKYMED 1", "group": "resource", "lat": 14.11164275197873, "lon": 165.61562543393836, "alt_km": 580.8758000644748, "timestamp": "2025-12-08T05:48:08.704143+00:00", "meta": {"OBJECT_NAME": "COSMO-SKYMED 1", "OBJECT_ID": "2007-023A", "EPOCH": "2025-12-07T23:18:59.696064", "MEAN_MOTION": 14.95709827, "ECCENTRICITY": 0.00010718, "INCLINATION": 97.8834, "RA_OF_ASC_NODE": 167.34, "ARG_OF_PERICENTER": 80.0402, "MEAN_ANOMALY": 280.094, "EPHEMERIS_TYPE": 0, "CLASSIFICATION_TYPE": "U", "NORAD_CAT_ID": 31598, "ELEMENT_SET_NO": 999, "REV_AT_EPOCH": 119, "BSTAR": 0.00044685146, "MEAN_MOTION_DOT": 4.917e-05, "MEAN_MOTION_DDOT": 0}, "tle": {"line1": "1 31598U 07023A   25341.97152426  .00004917  00000+0  44685-3 0  9999", "line2": "2 31598  97.8834 167.3400 0001071  80.0402 280.0940 14.95709827  1197"}}, "geometry": {"type": "Point", "coordinates": [165.61562543393836, 14.11164275197873]}}, {"type": "Feature", "properties": {"norad_id": 31698, "name": "TERRASAR-X", "group": "resource", "lat": 11.602267027871878, "lon": -13.851241403513558, "alt_km": 509.51544405823097, "timestamp": "2025-12-08T05:48:08.704154+00:00", "meta": {"OBJECT_NAME": "TERRASAR-X", "OBJECT_ID": "2007-026A", "EPOCH": "2025-12-07T13:56:33.832032", "MEAN_MOTION": 15.19154381, "ECCENTRICITY": 0.0001715, "INCLINATION": 97.445, "RA_OF_ASC_NODE": 347.036, "ARG_OF_PERICENTER": 88.3312, "MEAN_ANOMALY": 271.8119, "EPHEMERIS_TYPE": 0, "CLASSIFICATION_TYPE": "U", "NORAD_CAT_ID": 31698, "ELEMENT_SET_NO": 999, "REV_AT_EPOCH": 2413, "BSTAR": 0.0001437554, "MEAN_MOTION_DOT": 2.953e-05, "MEAN_MOTION_DDOT": 0}, "tle": {"line1": "1 31698U 07026A   25341.58094713  .00002953  00000+0  14376-3 0  9996", "line2": "2 31698  97.4450 347.0360 0001715  88.3312 271.8119 15.19154381 24137"}}, "geometry": {"type": "Point", "coordinates": [-13.851241403513558, 11.602267027871878]}}, {"type": "Feature", "properties": {"norad_id": 32060, "name": "WORLDVIEW-1 (WV-1)", "group": "resource", "lat": -73.72535923737539, "lon": 126.16243962206002, "alt_km": 499.9014972486284, "timestamp": "2025-12-08T05:48:08.704165+00:00", "meta": {"OBJECT_NAME": "WORLDVIEW-1 (WV-1)", "OBJECT_ID": "2007-041A", "EPOCH": "2025-12-07T20:40:54.132096", "MEAN_MOTION": 15.24570017, "ECCENTRICITY": 7.601e-05, "INCLINATION": 97.3846, "RA_OF_ASC_NODE": 99.4124, "ARG_OF_PERICENTER": 101.7388, "MEAN_ANOMALY": 258.3935, "EPHEMERIS_TYPE": 0, "CLASSIFICATION_TYPE": "U", "NORAD_CAT_ID": 32060, "ELEMENT_SET_NO": 999, "REV_AT_EPOCH": 1373, "BSTAR": 0.00054019353, "MEAN_MOTION_DOT": 0.00013249, "MEAN_MOTION_DDOT": 0}, "tle": {"line1": "1 32060U 07041A   25341.86173764  .00013249  00000+0  54019-3 0  9990", "line2": "2 32060  97.3846  99.4124 0000760 101.7388 258.3935 15.24570017 13731"}}, "geometry": {"type": "Point", "coordinates": [126.16243962206002, -73.72535923737539]}}]}